INTELSAT 10 (IS-10)     
1 26766U 01019A   25230.51908006 -.00000091  00000+0  00000+0 0  9998
2 26766   8.3460  62.3301 0001522 172.5519 197.9018  0.99074889 42583
INTELSAT 902 (IS-902)   
1 26900U 01039A   25223.03084625 -.00000282  00000+0  00000+0 0  9993
2 26900   5.3293  75.5862 0004248  65.6014 139.5500  1.00270596 87585
INTELSAT 904 (IS-904)   
1 27380U 02007A   25230.38706372 -.00000218  00000+0  00000+0 0  9997
2 27380   6.1576  72.8170 0003040  99.5798 266.4698  1.00272051 48737
DIRECTV 5 (TEMPO 1)     
1 27426U 02023A   25230.56433729 -.00000071  00000+0  00000+0 0  9996
2 27426   4.0992  79.1120 0003209  80.7501 260.3432  1.00271928 85083
INTELSAT 905 (IS-905)   
1 27438U 02027A   25230.22254701  .00000081  00000+0  00000+0 0  9997
2 27438   5.9868  73.4517 0002332  72.4388 123.8549  1.00270270 48329
GALAXY 3C (G-3C)        
1 27445U 02030A   25230.55877940 -.00000166  00000+0  00000+0 0  9996
2 27445   2.9549  81.7892 0002424  59.1343 292.5434  1.00271073 43451
INTELSAT 906 (IS-906)   
1 27513U 02041A   25230.54794019 -.00000002  00000+0  00000+0 0  9997
2 27513   5.0287  76.6672 0002044  69.4366  82.4486  1.00272768 83938
GALAXY 23 (G-23)        
1 27854U 03034A   25230.39053039 -.00000220  00000+0  00000+0 0  9993
2 27854   2.4089  83.3967 0004499 123.7669 250.9047  0.98961064 80702
GALAXY 13 (HORIZONS-1)  
1 27954U 03044A   25230.50547332  .00000120  00000+0  00000+0 0  9990
2 27954   0.6311  88.4787 0002076  49.7740 220.8196  1.00270994 80129
INTELSAT 10-02          
1 28358U 04022A   25230.39226374 -.00000023  00000+0  00000+0 0  9996
2 28358   0.0487 272.7899 0001021 275.8291 278.5993  1.00270471 77525
XM-3 (RHYTHM)           
1 28626U 05008A   25230.52730216 -.00000211  00000+0  00000+0 0  9998
2 28626   0.0118  66.1663 0000648 168.9505 195.5083  1.00268402 39585
DIRECTV 8               
1 28659U 05019A   25230.56988947 -.00000011  00000+0  00000+0 0  9994
2 28659   0.0171 106.5943 0002952  55.1919 251.4927  1.00271584 74039
GALAXY 28 (G-28)        
1 28702U 05022A   25230.53377979 -.00000201  00000+0  00000+0 0  9992
2 28702   2.5150  82.7473 0002377  66.0509 281.8026  1.00271911 48944
GALAXY 16 (G-16)        
1 29236U 06023A   25230.56116020 -.00000139  00000+0  00000+0 0  9998
2 29236   0.0531 251.2724 0002568 264.0524 274.8507  1.00271446 70230
DIRECTV 9S              
1 29494U 06043A   25230.55877940 -.00000126  00000+0  00000+0 0  9996
2 29494   1.6348  84.6777 0002883  73.6548 268.7874  1.00271404 48345
GALAXY 17 (G-17)        
1 31307U 07016B   25230.52266972 -.00000219  00000+0  00000+0 0  9990
2 31307   2.2005  83.7970 0002494 114.1047 232.3665  1.00272279 66768
DIRECTV 10              
1 31862U 07032A   25230.52680441 -.00000114  00000+0  00000+0 0  9999
2 31862   0.0404 285.4506 0000253 307.2155 181.3148  1.00267272 42552
INTELSAT 11 (IS-11)     
1 32253U 07044B   25230.53849347 -.00000094  00000+0  00000+0 0  9997
2 32253   2.7718  82.4370 0006657 106.0218 349.1620  0.99051452 65458
HORIZONS-2              
1 32388U 07063B   25230.52822465 -.00000266  00000+0  00000+0 0  9999
2 32388   1.8161  84.4536 0001869  71.3991 287.6485  1.00271135 64771
DIRECTV 11              
1 32729U 08013A   25230.56154523 -.00000137  00000+0  00000+0 0  9998
2 32729   0.0237 322.0113 0000397 329.5516 138.5509  1.00268100 42554
GALAXY 18 (G-18)        
1 32951U 08024A   25230.56988947  .00000013  00000+0  00000+0 0  9994
2 32951   0.0162 107.7746 0003098  56.8841 244.6462  1.00271176 42813
INTELSAT 25 (IS-25)     
1 33153U 08034A   25230.38619704 -.00000237  00000+0  00000+0 0  9991
2 33153   1.9225  84.1336 0004172  91.7055 258.7011  1.00270589 62657
GALAXY 19 (G-19)        
1 33376U 08045A   25230.55877940 -.00000151  00000+0  00000+0 0  9992
2 33376   0.0557 273.2184 0002828 249.1485 268.9517  1.00271622 61805
FM-5                    
1 35493U 09034A   25230.52730188 -.00000212  00000+0  00000+0 0  9990
2 35493   0.0438 275.8418 0000982 115.3792  39.5751  1.00269729 43602
INTELSAT 14 (IS-14)     
1 36097U 09064A   25230.45489238 -.00000285  00000+0  00000+0 0  9993
2 36097   0.0259  90.5461 0002696  79.5388 275.7392  1.00269407 57568
INTELSAT 15 (IS-15)     
1 36106U 09067A   25230.33801016 -.00000197  00000+0  00000+0 0  9998
2 36106   0.0164  90.6806 0002324  74.4811   8.6132  1.00271409 38199
DIRECTV 12              
1 36131U 09075A   25230.52680404 -.00000115  00000+0  00000+0 0  9992
2 36131   0.0045 211.9369 0000365  32.1926 169.9168  1.00270006 43512
INTELSAT 16 (IS-16)     
1 36397U 10006A   25230.52822465 -.00000256  00000+0  00000+0 0  9993
2 36397   0.0106 265.4099 0002641 270.3249 265.3468  1.00270729 56612
XM-5                    
1 37185U 10053A   25230.56947280 -.00000035  00000+0  00000+0 0  9993
2 37185   0.0571 277.2979 0000454  93.9888  45.6886  1.00268879 54445
INTELSAT 17 (IS-17)     
1 37238U 10065B   25230.54828685 -.00000014  00000+0  00000+0 0  9997
2 37238   0.0271 219.1604 0002826 301.1039  70.2640  1.00271594 50219
INTELSAT 28 (IS-28)     
1 37392U 11016A   25230.45757906 -.00000237  00000+0  00000+0 0  9999
2 37392   1.0188  86.7005 0004520  62.9912 310.4089  1.00271869 50251
INTELSAT 18 (IS-18)     
1 37834U 11056A   25230.49957997  .00000041  00000+0  00000+0 0  9992
2 37834   0.0084 168.4738 0001800 338.1204 180.3393  1.00271301 50777
INTELSAT 22 (IS-22)     
1 38098U 12011A   25230.54950019 -.00000071  00000+0  00000+0 0  9995
2 38098   0.0263  89.1664 0001906  69.7577  78.1399  1.00271291  4152
INTELSAT 19 (IS-19)     
1 38356U 12030A   25230.54697542 -.00000069  00000+0  00000+0 0  9999
2 38356   0.0090  91.7255 0003146  70.6245 167.7108  1.00270565 47415
INTELSAT 20 (IS-20)     
1 38740U 12043A   25230.19195356 -.00000035  00000+0  00000+0 0  9990
2 38740   0.0157 121.4805 0000351  18.8053 324.1068  1.00270984 47716
INTELSAT 21 (IS-21)     
1 38749U 12045A   25230.52376008 -.00000297  00000+0  00000+0 0  9993
2 38749   0.0460 274.4289 0002102 263.4446 279.8038  1.00271117 47607
INTELSAT 23 (IS-23)     
1 38867U 12057A   25230.45333237 -.00000296  00000+0  00000+0 0  9995
2 38867   0.0559 256.4391 0000370 288.8763 251.9402  1.00275861 46918
FM-6                    
1 39360U 13058A   25230.56988947 -.00000029  00000+0  00000+0 0  9996
2 39360   0.0173 116.9677 0002194  55.8981 243.3109  1.00269619 43310
INTELSAT 30 (IS-30)     
1 40271U 14062A   25230.55877940 -.00000163  00000+0  00000+0 0  9993
2 40271   0.0134  66.2930 0001556 328.8848  38.0813  1.00270198  3743
DIRECTV 14              
1 40333U 14078B   25230.56154502 -.00000137  00000+0  00000+0 0  9993
2 40333   0.0169  99.7459 0000586 143.2184 187.1203  1.00270170 39008
DIRECTV 15              
1 40663U 15026A   25230.52680421 -.00000114  00000+0  00000+0 0  9998
2 40663   0.0193  93.6071 0000432 252.3109  67.9987  1.00270360 37422
SKY MEXICO-1            
1 40664U 15026B   25230.51960006 -.00000246  00000+0  00000+0 0  9994
2 40664   0.0186 241.1629 0002055 276.6604 277.5904  1.00269586 37411
INTELSAT 34 (IS-34)     
1 40874U 15039A   25230.45289904 -.00000297  00000+0  00000+0 0  9991
2 40874   0.0085 112.4944 0001749 248.0790  74.0302  1.00270763 36588
INTELSAT 31 (IS-31)     
1 41581U 16035A   25230.55877940 -.00000162  00000+0  00000+0 0  9999
2 41581   0.0268 227.9394 0001609  21.8249 183.4918  1.00270641 33646
INTELSAT 36 (IS-36)     
1 41747U 16053A   25230.54880685 -.00000037  00000+0  00000+0 0  9993
2 41747   0.0112  36.7572 0002525 308.1881 248.2727  1.00270852 32914
INTELSAT 32E (IS-32E)   
1 41945U 17007B   25230.45532572 -.00000281  00000+0  00000+0 0  9993
2 41945   0.0138 101.8142 0000881 257.6441  88.3351  1.00269870 31184
INTELSAT 35E (IS-35E)   
1 42818U 17041A   25230.45705906 -.00000250  00000+0  00000+0 0  9990
2 42818   0.0196 221.6592 0001914 312.7830 282.6635  1.00271396 29784
INTELSAT 37E (IS-37E)   
1 42950U 17059A   25230.38888372 -.00000152  00000+0  00000+0 0  9998
2 42950   0.0113 124.2040 0002580  31.7348 293.0366  1.00271837 29022
AZERSPACE 2 (IS-38)     
1 43632U 18074A   25230.54421350  .00000124  00000+0  00000+0 0  9999
2 43632   0.0112 114.9652 0001418  38.1307  55.0697  1.00270387 25409
HORIZONS-3E             
1 43633U 18074B   25230.35456356 -.00000042  00000+0  00000+0 0  9993
2 43633   0.0442 255.2850 0001565  39.6482 328.6457  1.00272739 25303
AT&T T-16               
1 44333U 19034A   25230.55877940 -.00000127  00000+0  00000+0 0  9990
2 44333   0.0190  94.2288 0000186 273.6442  59.5788  1.00268788 22595
INTELSAT 39 (IS-39)     
1 44476U 19049B   25230.50947442  .00000021  00000+0  00000+0 0  9996
2 44476   0.0106 128.5051 0000794 188.3026 255.6452  1.00270149 22090
GALAXY 30 (G-30)        
1 46114U 20056C   25230.56988947  .00000025  00000+0  00000+0 0  9992
2 46114   0.0169 105.5496 0001912  50.4427 251.3292  1.00270978 18253
GALAXY 33 (G-33)        
1 54026U 22128A   25230.49309309  .00000067  00000+0  00000+0 0  9992
2 54026   0.0132 221.0471 0001694 295.5454 215.0000  1.00274013 10700
GALAXY 34 (G-34)        
1 54027U 22128B   25230.56988947  .00000047  00000+0  00000+0 0  9990
2 54027   0.0086  96.7377 0001544  50.2370 256.3546  1.00272386 10870
GALAXY 31 (G-31)        
1 54243U 22153A   25230.56988947  .00000001  00000+0  00000+0 0  9998
2 54243   0.0287 225.1951 0001426 341.0696 205.0586  1.00271595 10124
GALAXY 32 (G-32)        
1 54244U 22153B   25230.52266972 -.00000186  00000+0  00000+0 0  9997
2 54244   0.0153  85.7019 0000435 332.1144   6.4596  1.00270738 10100
GALAXY 35 (G-35)        
1 54741U 22170A   25230.53377979 -.00000174  00000+0  00000+0 0  9996
2 54741   0.0172 113.5437 0001908  39.4804 273.1684  1.00271731  9858
GALAXY 36 (G-36)        
1 54742U 22170B   25230.53377979 -.00000197  00000+0  00000+0 0  9992
2 54742   0.0098 140.5857 0002108 346.2174 303.4855  1.00271029  9738
GALAXY 37 (G-37)        
1 57493U 23112A   25230.56988947  .00000036  00000+0  00000+0 0  9992
2 57493   0.0274  92.8014 0001884  69.2376 243.2957  1.00270986  7508
